[
    {
        "Altitude(m)": 604969.0890085164,
        "Argument of Periapsis(deg)": 0.0,
        "Eccentricity": 0.0,
        "Inclination(deg)": 60.0,
        "Latitude(deg)": -0.0925539332245637,
        "Longitude(deg)": 59.97752772372151,
        "Mean Anomaly(deg)": 0.0,
        "RAAN(deg)": 160.0,
        "Satellite Name": "Test1 704",
        "Satellite Number": 704,
        "Semi-Major Axis(m)": 6980739.136638005,
        "Time(s)": 0
    },
    {
        "Altitude(m)": 604900.029252869,
        "Argument of Periapsis(deg)": 0.00010418945913296404,
        "Eccentricity": 0.0,
        "Inclination(deg)": 60.0,
        "Latitude(deg)": 0.44787230896895835,
        "Longitude(deg)": 60.245650063588144,
        "Mean Anomaly(deg)": 0.6201061454618275,
        "RAAN(deg)": 159.99957995086024,
        "Satellite Name": "Test1 704",
        "Satellite Number": 704,
        "Semi-Major Axis(m)": 6980739.136638005,
        "Time(s)": 10
    }
]